*******************************************************************************
 Revised: Jan 23, 2020            Enceladus / (Saturn)                      602
                           http://ssd.jpl.nasa.gov/?sat_phys_par
                             http://ssd.jpl.nasa.gov/?sat_elem

 SATELLITE PHYSICAL PROPERTIES:
  Mean Radius (km)        = 252.3   +- 0.6   Density (g/cm^3) =  1.606 +- 0.012
  Mass (10^19 kg)         =  10.805          Geometric Albedo =  1.04
  GM (km^3/s^2)           =   7.210497       V(1,0)           =  +2.2

 SATELLITE ORBITAL DATA (mean elements referred to local Laplace plane):
  Semi-major axis, a (km) = 238.04(10^3)    Orbital period    = 1.370218 d
  Eccentricity, e         = 0.0047          Rotational period = Synchronous
  Inclination, i  (deg)   = 0.009
*******************************************************************************
 
 
*******************************************************************************
Ephemeris / WWW_USER Fri Jun 19 18:22:29 2020 Pasadena, USA      / Horizons
*******************************************************************************
Target body name: Enceladus (602)                 {source: sat427l_merged_DE438}
Center body name: Solar System Barycenter (0)     {source: DE431mx}
Center-site name: BODY CENTER
*******************************************************************************
Start time      : A.D. 1969-Jun-28 00:00:00.0000 TDB
Stop  time      : A.D. 2071-May-04 00:00:00.0000 TDB
Step-size       : 7200 minutes
*******************************************************************************
Center geodetic : 0.00000000,0.00000000,0.0000000 {E-lon(deg),Lat(deg),Alt(km)}
Center cylindric: 0.00000000,0.00000000,0.0000000 {E-lon(deg),Dxy(km),Dz(km)}
Center radii    : (undefined)                                                  
Output units    : AU-D
Output type     : GEOMETRIC cartesian states
Output format   : 2 (position and velocity)
Reference frame : Ecliptic of J2000.0
*******************************************************************************
            JDTDB,            Calendar Date (TDB),        delta-T,                      X,                      Y,                      Z,                     VX,                     VY,                     VZ,
******************************************************************************************************************************************************************************************************************
$$SOE
2453000.500000000, A.D. 2003-Dec-27 00:00:00.0000,      64.183787, -1.490136914824875E+00,  8.906149308817396E+00, -9.614776911180289E-02, -1.038860640989434E-02,  4.293834457545327E-03, -2.048587510340091E-03,
2453005.500000000, A.D. 2004-Jan-01 00:00:00.0000,      64.183931, -1.520289678451476E+00,  8.899185313345656E+00, -9.362093513167608E-02,  1.432932242893698E-03, -9.384750132068616E-04, -4.599614663304753E-04,
2453010.500000000, A.D. 2004-Jan-06 00:00:00.0000,      64.184073, -1.550662509896949E+00,  8.896616263302819E+00, -9.342070300972628E-02, -9.793154734673980E-03, -6.219452472398436E-03,  3.386147573779599E-03,
2453015.500000000, A.D. 2004-Jan-11 00:00:00.0000,      64.184215, -1.576806564519087E+00,  8.891317357172122E+00, -9.224362781544182E-02, -8.267126214321765E-03,  5.204178124663993E-03, -2.757821698520188E-03,
2453020.500000000, A.D. 2004-Jan-16 00:00:00.0000,      64.184356, -1.607688240914052E+00,  8.884578813856240E+00, -8.989756626893176E-02,  1.160924238437291E-03, -3.079337603090922E-03,  6.617142228377079E-04,
2453025.500000000, A.D. 2004-Jan-21 00:00:00.0000,      64.184496, -1.637140063919570E+00,  8.881994141388612E+00, -8.991146478851729E-02, -1.156177002435947E-02, -4.749695551174870E-03,  2.760607504138686E-03,
2453030.500000000, A.D. 2004-Jan-26 00:00:00.0000,      64.184632, -1.663497939779830E+00,  8.875636121617488E+00, -8.829159432340046E-02, -5.884103863900125E-03,  5.429224785426109E-03, -3.133190427997742E-03,
2453035.500000000, A.D. 2004-Jan-31 00:00:00.0000,      64.184763, -1.694893878228594E+00,  8.869312908962188E+00, -8.624619286521949E-02,  1.441467438017163E-04, -4.999192636926341E-03,  1.739811434938761E-03,
2453040.500000000, A.D. 2004-Feb-05 00:00:00.0000,      64.184886, -1.723362890568882E+00,  8.866442656173097E+00, -8.633832578233022E-02, -1.269756572239228E-02, -2.860333467638378E-03,  1.853950688157204E-03,
2453045.500000000, A.D. 2004-Feb-10 00:00:00.0000,      64.185002, -1.750212643361524E+00,  8.859158168877988E+00, -8.431782223991774E-02, -3.503761305630760E-03,  4.946932374653329E-03, -3.137544146082671E-03,
2453050.500000000, A.D. 2004-Feb-15 00:00:00.0000,      64.185111, -1.781848485073947E+00,  8.853365827407544E+00, -8.265979963474804E-02, -1.512335549846461E-03, -6.500693749818916E-03,  2.660738501011440E-03,
2453055.500000000, A.D. 2004-Feb-20 00:00:00.0000,      64.185214, -1.809374402277834E+00,  8.849940407066699E+00, -8.268462694737040E-02, -1.306602188306164E-02, -7.684150541662156E-04,  7.668804398679674E-04,
2453060.500000000, A.D. 2004-Feb-25 00:00:00.0000,      64.185308, -1.836933122279642E+00,  8.841934630847812E+00, -8.034956258532013E-02, -1.381944629471400E-03,  3.813306847978900E-03, -2.775440791326308E-03,
2453065.500000000, A.D. 2004-Mar-01 00:00:00.0000,      64.185390, -1.868503858682701E+00,  8.836702926418196E+00, -7.912365374259520E-02, -3.637199651862388E-03, -7.425941860897796E-03,  3.325154530730366E-03,
2453070.500000000, A.D. 2004-Mar-06 00:00:00.0000,      64.185461, -1.895224522993738E+00,  8.832482931814589E+00, -7.894193236935791E-02, -1.262231772594027E-02,  1.282687282550896E-03, -3.774114424811526E-04,
2453075.500000000, A.D. 2004-Mar-11 00:00:00.0000,      64.185520, -1.923624275906402E+00,  8.824010160564690E+00, -7.641233879643185E-02,  2.596518541943415E-04,  2.150965839795703E-03, -2.089649640932265E-03,
2453080.500000000, A.D. 2004-Mar-16 00:00:00.0000,      64.185569, -1.954826026516851E+00,  8.819280254070339E+00, -7.561672065858537E-02, -6.005309727959980E-03, -7.673464661683387E-03,  3.658075419445282E-03,
2453085.500000000, A.D. 2004-Mar-21 00:00:00.0000,      64.185608, -1.980962900370715E+00,  8.814083775737746E+00, -7.511121248392159E-02, -1.141847826101809E-02,  3.054884118593816E-03, -1.449115179375712E-03,
2453090.500000000, A.D. 2004-Mar-26 00:00:00.0000,      64.185635, -2.010237092229573E+00,  8.805418726391588E+00, -7.252735642458009E-02,  1.253484364439487E-03,  1.334027749083928E-04, -1.154842285858903E-03,
2453095.500000000, A.D. 2004-Mar-31 00:00:00.0000,      64.185648, -2.040798713141932E+00,  8.801049145858162E+00, -7.211370599316118E-02, -8.358491023775989E-03, -7.212669253914583E-03,  3.618455621610712E-03,
2453100.500000000, A.D. 2004-Apr-05 00:00:00.0000,      64.185647, -2.066632194907464E+00,  8.794772666100785E+00, -7.120251571898836E-02, -9.594566372350224E-03,  4.345811270080343E-03, -2.328611084550635E-03,
2453105.500000000, A.D. 2004-Apr-10 00:00:00.0000,      64.185635, -2.096712863780015E+00,  8.786180595126099E+00, -6.870950670986861E-02,  1.498757361228006E-03, -2.032442324379134E-03, -6.968623857852668E-05,
2453110.500000000, A.D. 2004-Apr-15 00:00:00.0000,      64.185612, -2.126424787611029E+00,  8.781961546154964E+00, -6.858771463531128E-02, -1.043234983483167E-02, -6.092270425159240E-03,  3.206201579852213E-03,
2453115.500000000, A.D. 2004-Apr-20 00:00:00.0000,      64.185578, -2.152262320197698E+00,  8.774592052711569E+00, -6.723374331301867E-02, -7.358252497299684E-03,  5.013039773951444E-03, -2.921137775566278E-03,
2453120.500000000, A.D. 2004-Apr-25 00:00:00.0000,      64.185532, -2.182988423044145E+00,  8.766300562867064E+00, -6.496597444002088E-02,  9.690713272520037E-04, -4.125326620900614E-03,  1.052444989264371E-03,
2453125.500000000, A.D. 2004-Apr-30 00:00:00.0000,      64.185475, -2.211725670090987E+00,  8.761975751555122E+00, -6.501336492129375E-02, -1.198865765321936E-02, -4.438785861826752E-03,  2.464521933217393E-03,
2453130.500000000, A.D. 2004-May-05 00:00:00.0000,      64.185405, -2.237866569046685E+00,  8.753592078308055E+00, -6.322842966164079E-02, -4.956651601430026E-03,  4.986604892719617E-03, -3.166083335688968E-03,
2453135.500000000, A.D. 2004-May-10 00:00:00.0000,      64.185325, -2.269001419123836E+00,  8.745767513188937E+00, -6.129552268935611E-02, -2.840909145079900E-04, -5.928399498131801E-03,  2.092931828571907E-03,
2453140.500000000, A.D. 2004-May-15 00:00:00.0000,      64.185237, -2.296738267935330E+00,  8.741061783031361E+00, -6.136991029606020E-02, -1.284710739139193E-02, -2.444050249235225E-03,  1.476465678945166E-03,
2453145.500000000, A.D. 2004-May-20 00:00:00.0000,      64.185141, -2.323439840391800E+00,  8.731825023194784E+00, -5.921299770178413E-02, -2.646922375042007E-03,  4.272390886924368E-03, -3.041606575420443E-03,
2453150.500000000, A.D. 2004-May-25 00:00:00.0000,      64.185037, -2.354695924082422E+00,  8.724555431926987E+00, -5.768846334378132E-02, -2.133098375374452E-03, -7.250205928212226E-03,  2.939082410307051E-03,
2453155.500000000, A.D. 2004-May-30 00:00:00.0000,      64.184924, -2.381509508340660E+00,  8.719205234568101E+00, -5.764376075159793E-02, -1.290978307687744E-02, -3.409114363098271E-04,  3.545597711377485E-04,
2453160.500000000, A.D. 2004-Jun-04 00:00:00.0000,      64.184803, -2.408958756528588E+00,  8.709340266282382E+00, -5.521407705970102E-02, -6.705729940105950E-04,  2.946793015980305E-03, -2.564327913021919E-03,
2453165.500000000, A.D. 2004-Jun-09 00:00:00.0000,      64.184676, -2.440027492551960E+00,  8.702626126559792E+00, -5.412755871270194E-02, -4.382177930089400E-03, -7.945439060864052E-03,  3.495785133802608E-03,
2453170.500000000, A.D. 2004-Jun-14 00:00:00.0000,      64.184547, -2.466089976848559E+00,  8.696409544133646E+00, -5.383025526324699E-02, -1.217385169924919E-02,  1.627335126082064E-03, -7.739765992349849E-04,
